SHIYAN-32 B             
1 66377U 25255B   25323.74420882  .00036168  00000+0  82831-3 0  9996
2 66377  52.9973 287.2488 0014328 327.4195  32.5924 15.42356692  1665
SHIYAN-32 C             
1 66378U 25255C   25323.61282074  .00039127  00000+0  88655-3 0  9990
2 66378  52.9986 287.8532 0013748 331.0520  28.9720 15.42647535  1644
CZ-11H R/B              
1 66379U 25255D   25323.74490917  .00017661  00000+0  41509-3 0  9998
2 66379  52.9975 287.2536 0015059 330.4692  29.5460 15.41999433  1689
STARLINK-35139          
1 66380U 25257A   25322.66672454 -.01312438  00000+0 -57033-2 0  9991
2 66380  53.1540  20.5713 0001110  48.4520  14.8525 15.86747698  2566
STARLINK-35158          
1 66381U 25257B   25322.66672454 -.01308655  00000+0 -56758-2 0  9991
2 66381  53.1536  20.5675 0001040  50.0507  14.8178 15.86779918  2626
STARLINK-35639          
1 66382U 25257C   25322.66672454 -.01320061  00000+0 -57236-2 0  9999
2 66382  53.1533  20.5627 0001140  51.3096  15.8134 15.86808402  2623
STARLINK-35690          
1 66383U 25257D   25322.66672454 -.01344862  00000+0 -58500-2 0  9990
2 66383  53.1532  20.5485 0000831  64.9568   8.8396 15.86798971  2626
STARLINK-35662          
1 66384U 25257E   25322.66672454 -.01347402  00000+0 -58537-2 0  9994
2 66384  53.1534  20.5448 0001137  52.0881  23.7302 15.86826129  2624
STARLINK-35659          
1 66385U 25257F   25322.66672454 -.01336006  00000+0 -58119-2 0  9999
2 66385  53.1534  20.5539 0001160  51.0413  20.3194 15.86775179  2622
STARLINK-35651          
1 66386U 25257G   25322.66672454 -.01363895  00000+0 -59297-2 0  9994
2 66386  53.1534  20.5387 0001184  50.9544  27.6843 15.86845689  2628
STARLINK-35661          
1 66387U 25257H   25322.66672454 -.01371885  00000+0 -59620-2 0  9993
2 66387  53.1535  20.5340 0001255  58.2498  22.7079 15.86870151  2626
STARLINK-35647          
1 66388U 25257J   25322.66672454 -.01383928  00000+0 -60162-2 0  9998
2 66388  53.1535  20.5283 0001133  53.8613  29.7809 15.86891110  2624
